[{"OBJECT_NAME":"STARLINK-6352","OBJECT_ID":"2023-078R","EPOCH":"2026-03-09T23:30:10.268064","MEAN_MOTION":14.98319389,"ECCENTRICITY":0.00029699,"INCLINATION":69.9997,"RA_OF_ASC_NODE":323.8595,"ARG_OF_PERICENTER":266.4672,"MEAN_ANOMALY":93.6147,"EPHEMERIS_TYPE":0,"CLASSIFICATION_TYPE":"U","NORAD_CAT_ID":56782,"ELEMENT_SET_NO":999,"REV_AT_EPOCH":15321,"BSTAR":5.2158184e-5,"MEAN_MOTION_DOT":5.29e-6,"MEAN_MOTION_DDOT":0},{"OBJECT_NAME":"COSMOS 2251 DEB","OBJECT_ID":"1993-036BTC","EPOCH":"2026-03-06T21:15:32.065056","MEAN_MOTION":14.78300657,"ECCENTRICITY":0.00931311,"INCLINATION":74.0491,"RA_OF_ASC_NODE":271.5054,"ARG_OF_PERICENTER":315.1951,"MEAN_ANOMALY":44.1729,"EPHEMERIS_TYPE":0,"CLASSIFICATION_TYPE":"U","NORAD_CAT_ID":38212,"ELEMENT_SET_NO":999,"REV_AT_EPOCH":82553,"BSTAR":0.00033586703,"MEAN_MOTION_DOT":2.587e-5,"MEAN_MOTION_DDOT":0}]
